MOLNIYA 2-9             
1 07276U 74026A   22017.84887742  .00000133  00000+0  00000+0 0  9996
2 07276  64.2584 248.6710 6558488 283.1361  15.8627  2.45095592245527
MOLNIYA 2-10            
1 07376U 74056A   22019.24848238 -.00000694  00000+0  00000+0 0  9996
2 07376  63.9268 110.1349 6692823 287.9632  13.4412  2.01188454347384
MOLNIYA 1-S             
1 07392U 74060A   22018.81351589 -.00000324  00000+0  00000+0 0  9999
2 07392   5.4902 285.2190 0009967 202.5137  31.0759  1.00265910118022
MOLNIYA 1-29            
1 07780U 75036A   22015.15409078  .00000259  00000+0 -52226-1 0  9991
2 07780  63.3560 232.9829 7025476 289.4444  11.1689  2.00594125342540
MOLNIYA 2-14            
1 08195U 75081A   22014.77831287  .00001085  00000+0  00000+0 0  9998
2 08195  63.3683 204.9418 6909117 293.7394  10.7061  2.02056737339789
MOLNIYA 1-32            
1 08601U 76006A   22017.05264110  .00000854  00000+0 -38079-2 0  9991
2 08601  63.3633 319.4195 7338387 283.2178  10.8201  2.00068288 49631
MOLNIYA 1-36            
1 09880U 77021A   22017.83653521  .00000900  00000+0 -36879-2 0  9991
2 09880  63.1971 289.5585 7295632 289.2443   9.8251  2.00354882226346
MOLNIYA 3-8             
1 10455U 77105A   22019.06150304  .00000295  00000+0 -69688-3 0  9994
2 10455  63.0171  21.2130 7395273 281.4201  10.7205  2.00424405324069
MOLNIYA 1-40            
1 10925U 78055A   22019.15615707 -.00000429  00000+0  00000+0 0  9992
2 10925  62.9966  69.5055 7226016 280.1210  12.1225  2.00537287319713
MOLNIYA 3-10            
1 11057U 78095A   22019.02223249  .00000257  00000+0  66664-3 0  9995
2 11057  62.9302  94.8008 5812621 308.5574  12.3454  4.09837464377612
MOLNIYA 3-13            
1 11896U 80063A   22019.41575885  .00000200  00000+0  00000+0 0  9999
2 11896  62.6221 156.2003 7050269 276.1302  14.5086  2.00562826304151
MOLNIYA 1-49            
1 12156U 81009A   22016.52800215 -.00000596  00000+0  16462-2 0  9998
2 12156  61.7215 188.2659 7201088 260.1071  19.1169  2.05712197218362
MOLNIYA 1-52            
1 13012U 81123A   22018.81150188 -.00000315  00000+0 -84716-2 0  9995
2 13012  62.2464 301.3495 7287720 252.7121  21.9007  2.00878534293641
MOLNIYA 1-53            
1 13070U 82015A   22016.74560917  .00001584  00000+0 -51744-3 0  9999
2 13070  62.5411 233.7158 7150742 282.0958  12.2115  2.00574133292214
MOLNIYA 3-20            
1 13875U 83015A   22017.95813337 -.00001407  00000+0  64391-4 0  9991
2 13875  63.0904  16.5312 7385962 256.9089  18.7811  2.00750951220699
MOLNIYA 1-56            
1 13890U 83019A   22018.11703261  .00000602  00000+0  66660-3 0  9990
2 13890  63.0462  42.1591 7413533 262.8795  16.0354  1.99826963283602
MOLNIYA 1-62            
1 15214U 84089A   22019.12590945  .00016553  17873-5  16443-2 0  9992
2 15214  62.7948  42.3566 7538574 269.8172  12.7464  1.98847177241307
MOLNIYA 1-63            
1 15429U 84124A   22015.98795597  .00000803  00000+0  00000+0 0  9998
2 15429  63.6469 182.1056 6566615 261.0926 345.5914  2.00346351271691
MOLNIYA 3-24            
1 15738U 85040A   22016.37876620 -.00000075  00000+0  00000+0 0  9992
2 15738  63.7528 110.3861 6727200 247.7689  31.3831  2.55627721299987
MOLNIYA 3-27            
1 16393U 85117A   22015.68322725 -.00000122  00000+0  00000+0 0  9993
2 16393  64.5095 100.8723 6883922 249.8899  28.0031  2.12398287270938
MOLNIYA 1-69            
1 17078U 86089A   22016.53135683 -.00000194  00000+0  00000+0 0  9992
2 17078  64.0710 200.8713 6600231 260.0405  25.0918  2.00982171257772
MOLNIYA 3-31            
1 17328U 87008A   22018.37292935 -.00000214  00000+0  00000+0 0  9993
2 17328  63.7568 145.9261 6914206 254.9850  24.5956  2.00599067252858
MOLNIYA 1-71            
1 18946U 88017A   22018.89660932  .00000442  00000+0  00000+0 0  9996
2 18946  63.4541 141.8564 7031806 257.0802  22.2368  2.00582621248093
MOLNIYA 1-75            
1 19807U 89014A   22017.00155500  .00001076  00000+0  00000+0 0  9997
2 19807  64.1457 301.7882 6939052 267.9371  18.3996  2.00424326240962
MOLNIYA 1-80            
1 21118U 91012A   22018.07176447  .00000254  00000+0  00000+0 0  9994
2 21118  65.1301 349.6039 6840162 279.6567  14.9284  2.05244665227894
MOLNIYA 3-40            
1 21196U 91022A   22018.09509933  .00001102  00000+0  00000+0 0  9996
2 21196  65.1083 343.0804 6873148 276.3646  15.7870  2.03003721226632
MOLNIYA 1-81            
1 21426U 91043A   22016.99836838 -.00000124  00000+0  00000+0 0  9993
2 21426  64.1983   3.4155 7114759 268.0438  16.7461  2.00606500224126
MOLNIYA 3-41            
1 21706U 91065A   22018.17513252  .00001259  00000+0  00000+0 0  9991
2 21706  64.1133 181.9731 6753561 257.6723  24.8026  2.04344948223794
MOLNIYA 3-42            
1 22178U 92067A   22016.82479073  .00000197  00000+0  00000+0 0  9990
2 22178  64.6826 232.1132 6479549 269.5645  21.6090  2.20434056 76714
MOLNIYA 1-86            
1 22671U 93035A   22019.05666065  .00000094  00000+0  26884-3 0  9999
2 22671  63.1545 323.4549 4829193   4.8634 358.4865  5.62639025343844
MOLNIYA 1-87            
1 22949U 93079A   22019.19486627 -.00001021  00000+0  00000+0 0  9994
2 22949  63.7243 109.1114 6826265 285.3882  13.3306  2.02871013206256
MOLNIYA 1-88            
1 23420U 94081A   22017.52126831  .00000100  00000+0  00000+0 0  9992
2 23420  64.2769 229.2807 5858253 285.7963  19.7671  3.34495848108652
MOLNIYA 3-47            
1 23642U 95042A   22017.24803068 -.00000373  00000+0  00000+0 0  9992
2 23642  63.7714  91.6940 6882076 285.5173  12.9308  2.01983768193969
MOLNIYA 1-90            
1 24960U 97054A   22018.73216618  .00000053  00000+0 -30436-2 0  9999
2 24960  63.6333 196.8680 6174555 299.7566  13.0100  3.18686698203311
MOLNIYA 1-91            
1 25485U 98054A   22018.21673066  .00000176  00000+0  22925-2 0  9999
2 25485  62.9978 173.6191 6813185 291.8676 322.1652  2.36442908174827
MOLNIYA 3-50            
1 25847U 99036A   22017.97160504 -.00000359  00000+0  33350-4 0  9992
2 25847  63.0174 358.2041 7430358 281.0408  10.6423  2.00614495165093
